GLOBALSTAR M001         
1 25162U 98008A   25003.94728653 -.00000066  00000+0  23364-3 0  9998
2 25162  52.0037  91.2556 0001089 233.4893 299.0329 12.38204903223365
GLOBALSTAR M004         
1 25163U 98008B   25003.93268110 -.00000080  00000+0  13036-3 0  9996
2 25163  51.9971 195.2493 0001952 296.3741 211.4944 12.63383979240926
GLOBALSTAR M002         
1 25164U 98008C   25004.13975129 -.00000109  00000+0 -63242-3 0  9992
2 25164  52.0026 291.5268 0000700 186.6076 173.4735 11.61506135165077
GLOBALSTAR M003         
1 25165U 98008D   25003.94182667  .00000015  00000+0  11162-2 0  9995
2 25165  51.9982 263.4056 0007894 327.4202 140.1910 12.12063887213302
GLOBALSTAR M006         
1 25307U 98023B   25004.17186774 -.00000050  00000+0  53335-3 0  9998
2 25307  51.9934 264.4634 0003354 153.3138   4.1216 11.58171138197937
GLOBALSTAR M015         
1 25308U 98023C   25004.13615583 -.00000064  00000+0  21679-3 0  9991
2 25308  51.9847 355.5025 0012692 143.9690 297.5234 11.48855575175599
